{"fetched_at":"2026-07-19T17:31:11.371Z","source":"https://celestrak.org/NORAD/elements/gp.php?GROUP=planet&FORMAT=JSON","constellation":"skysat","records":[{"OBJECT_NAME":"SKYSAT-A","OBJECT_ID":"2013-066C","EPOCH":"2026-07-19T01:37:11.398656","CLASSIFICATION_TYPE":"U","MEAN_MOTION":15.13126992,"ECCENTRICITY":0.00208388,"INCLINATION":97.3798,"RA_OF_ASC_NODE":248.4487,"ARG_OF_PERICENTER":199.5369,"MEAN_ANOMALY":160.5066,"EPHEMERIS_TYPE":0,"NORAD_CAT_ID":39418,"ELEMENT_SET_NO":999,"REV_AT_EPOCH":69330,"BSTAR":0.000084883253,"MEAN_MOTION_DOT":0.00001447,"MEAN_MOTION_DDOT":0},{"OBJECT_NAME":"SKYSAT-B","OBJECT_ID":"2014-037D","EPOCH":"2026-07-18T20:43:17.099040","CLASSIFICATION_TYPE":"U","MEAN_MOTION":14.88096705,"ECCENTRICITY":0.0005859,"INCLINATION":98.3856,"RA_OF_ASC_NODE":160.6392,"ARG_OF_PERICENTER":161.5941,"MEAN_ANOMALY":198.5487,"EPHEMERIS_TYPE":0,"NORAD_CAT_ID":40072,"ELEMENT_SET_NO":999,"REV_AT_EPOCH":65067,"BSTAR":0.000068340136,"MEAN_MOTION_DOT":0.00000567,"MEAN_MOTION_DDOT":0},{"OBJECT_NAME":"SKYSAT-C1","OBJECT_ID":"2016-040C","EPOCH":"2026-07-19T07:43:35.078592","CLASSIFICATION_TYPE":"U","MEAN_MOTION":15.36787797,"ECCENTRICITY":0.0000501,"INCLINATION":96.955,"RA_OF_ASC_NODE":230.3079,"ARG_OF_PERICENTER":204.4557,"MEAN_ANOMALY":155.6664,"EPHEMERIS_TYPE":0,"NORAD_CAT_ID":41601,"ELEMENT_SET_NO":999,"REV_AT_EPOCH":56280,"BSTAR":0.00013026652,"MEAN_MOTION_DOT":0.00004607,"MEAN_MOTION_DDOT":0},{"OBJECT_NAME":"SKYSAT-C4","OBJECT_ID":"2016-058B","EPOCH":"2026-07-19T07:23:02.142816","CLASSIFICATION_TYPE":"U","MEAN_MOTION":15.49519373,"ECCENTRICITY":0.00035402,"INCLINATION":96.917,"RA_OF_ASC_NODE":220.754,"ARG_OF_PERICENTER":112.6543,"MEAN_ANOMALY":247.5084,"EPHEMERIS_TYPE":0,"NORAD_CAT_ID":41771,"ELEMENT_SET_NO":999,"REV_AT_EPOCH":55044,"BSTAR":0.00017512998,"MEAN_MOTION_DOT":0.00009565,"MEAN_MOTION_DDOT":0},{"OBJECT_NAME":"SKYSAT-C5","OBJECT_ID":"2016-058C","EPOCH":"2026-07-19T01:27:17.155872","CLASSIFICATION_TYPE":"U","MEAN_MOTION":15.3374947,"ECCENTRICITY":0.00029542,"INCLINATION":97.0451,"RA_OF_ASC_NODE":239.2674,"ARG_OF_PERICENTER":151.0084,"MEAN_ANOMALY":209.1324,"EPHEMERIS_TYPE":0,"NORAD_CAT_ID":41772,"ELEMENT_SET_NO":999,"REV_AT_EPOCH":54863,"BSTAR":0.00011948168,"MEAN_MOTION_DOT":0.00003826,"MEAN_MOTION_DDOT":0},{"OBJECT_NAME":"SKYSAT-C2","OBJECT_ID":"2016-058D","EPOCH":"2026-07-19T01:09:40.843296","CLASSIFICATION_TYPE":"U","MEAN_MOTION":15.42733343,"ECCENTRICITY":0.00009173,"INCLINATION":97.0161,"RA_OF_ASC_NODE":220.9571,"ARG_OF_PERICENTER":329.4128,"MEAN_ANOMALY":30.7067,"EPHEMERIS_TYPE":0,"NORAD_CAT_ID":41773,"ELEMENT_SET_NO":999,"REV_AT_EPOCH":54996,"BSTAR":0.00015928038,"MEAN_MOTION_DOT":0.00006875,"MEAN_MOTION_DDOT":0},{"OBJECT_NAME":"SKYSAT-C3","OBJECT_ID":"2016-058E","EPOCH":"2026-07-19T00:48:57.350304","CLASSIFICATION_TYPE":"U","MEAN_MOTION":15.53816943,"ECCENTRICITY":0.00027373,"INCLINATION":96.8994,"RA_OF_ASC_NODE":229.6808,"ARG_OF_PERICENTER":128.8883,"MEAN_ANOMALY":231.2616,"EPHEMERIS_TYPE":0,"NORAD_CAT_ID":41774,"ELEMENT_SET_NO":999,"REV_AT_EPOCH":55105,"BSTAR":0.00021334825,"MEAN_MOTION_DOT":0.00013616,"MEAN_MOTION_DDOT":0},{"OBJECT_NAME":"SKYSAT-C11","OBJECT_ID":"2017-068A","EPOCH":"2026-07-19T05:17:12.593760","CLASSIFICATION_TYPE":"U","MEAN_MOTION":15.59466582,"ECCENTRICITY":0.00014233,"INCLINATION":97.4391,"RA_OF_ASC_NODE":350.4914,"ARG_OF_PERICENTER":153.1659,"MEAN_ANOMALY":206.9671,"EPHEMERIS_TYPE":0,"NORAD_CAT_ID":42987,"ELEMENT_SET_NO":999,"REV_AT_EPOCH":48823,"BSTAR":0.00022012215,"MEAN_MOTION_DOT":0.00017324,"MEAN_MOTION_DDOT":0},{"OBJECT_NAME":"SKYSAT-C10","OBJECT_ID":"2017-068B","EPOCH":"2026-07-18T21:51:28.463040","CLASSIFICATION_TYPE":"U","MEAN_MOTION":15.351608,"ECCENTRICITY":0.00015172,"INCLINATION":97.4546,"RA_OF_ASC_NODE":337.0854,"ARG_OF_PERICENTER":111.4677,"MEAN_ANOMALY":248.6728,"EPHEMERIS_TYPE":0,"NORAD_CAT_ID":42988,"ELEMENT_SET_NO":999,"REV_AT_EPOCH":48722,"BSTAR":0.00017528408,"MEAN_MOTION_DOT":0.00005899,"MEAN_MOTION_DDOT":0},{"OBJECT_NAME":"SKYSAT-C9","OBJECT_ID":"2017-068C","EPOCH":"2026-07-18T21:47:26.153376","CLASSIFICATION_TYPE":"U","MEAN_MOTION":15.42268411,"ECCENTRICITY":0.0008323,"INCLINATION":97.4467,"RA_OF_ASC_NODE":338.3256,"ARG_OF_PERICENTER":32.6889,"MEAN_ANOMALY":327.4872,"EPHEMERIS_TYPE":0,"NORAD_CAT_ID":42989,"ELEMENT_SET_NO":999,"REV_AT_EPOCH":48764,"BSTAR":0.00016461838,"MEAN_MOTION_DOT":0.00006998,"MEAN_MOTION_DDOT":0},{"OBJECT_NAME":"SKYSAT-C8","OBJECT_ID":"2017-068D","EPOCH":"2026-07-18T21:33:40.891680","CLASSIFICATION_TYPE":"U","MEAN_MOTION":15.37534183,"ECCENTRICITY":0.00012591,"INCLINATION":97.4564,"RA_OF_ASC_NODE":336.995,"ARG_OF_PERICENTER":105.1163,"MEAN_ANOMALY":255.0221,"EPHEMERIS_TYPE":0,"NORAD_CAT_ID":42990,"ELEMENT_SET_NO":999,"REV_AT_EPOCH":48718,"BSTAR":0.00015505332,"MEAN_MOTION_DOT":0.00005624,"MEAN_MOTION_DDOT":0},{"OBJECT_NAME":"SKYSAT-C7","OBJECT_ID":"2017-068E","EPOCH":"2026-07-18T21:25:54.413760","CLASSIFICATION_TYPE":"U","MEAN_MOTION":15.37483893,"ECCENTRICITY":0.00053671,"INCLINATION":97.4574,"RA_OF_ASC_NODE":337.9814,"ARG_OF_PERICENTER":8.6859,"MEAN_ANOMALY":351.4478,"EPHEMERIS_TYPE":0,"NORAD_CAT_ID":42991,"ELEMENT_SET_NO":999,"REV_AT_EPOCH":48724,"BSTAR":0.00015377346,"MEAN_MOTION_DOT":0.0000557,"MEAN_MOTION_DDOT":0},{"OBJECT_NAME":"SKYSAT-C6","OBJECT_ID":"2017-068F","EPOCH":"2026-07-18T21:51:28.148544","CLASSIFICATION_TYPE":"U","MEAN_MOTION":15.34206948,"ECCENTRICITY":0.00050135,"INCLINATION":97.4612,"RA_OF_ASC_NODE":337.8361,"ARG_OF_PERICENTER":79.9039,"MEAN_ANOMALY":280.2769,"EPHEMERIS_TYPE":0,"NORAD_CAT_ID":42992,"ELEMENT_SET_NO":999,"REV_AT_EPOCH":48718,"BSTAR":0.00015086285,"MEAN_MOTION_DOT":0.00004915,"MEAN_MOTION_DDOT":0},{"OBJECT_NAME":"SKYSAT-C12","OBJECT_ID":"2018-099AR","EPOCH":"2026-07-19T07:43:05.788992","CLASSIFICATION_TYPE":"U","MEAN_MOTION":15.49872022,"ECCENTRICITY":0.00050296,"INCLINATION":96.9255,"RA_OF_ASC_NODE":222.286,"ARG_OF_PERICENTER":61.0315,"MEAN_ANOMALY":299.1441,"EPHEMERIS_TYPE":0,"NORAD_CAT_ID":43797,"ELEMENT_SET_NO":999,"REV_AT_EPOCH":42683,"BSTAR":0.00017118528,"MEAN_MOTION_DOT":0.00009467,"MEAN_MOTION_DDOT":0}]}
